[{"OBJECT_NAME":"GPS BIIR-2  (PRN 13)","OBJECT_ID":"1997-035A","EPOCH":"2026-02-01T02:08:39.899616","MEAN_MOTION":2.00563853,"ECCENTRICITY":0.00973008,"INCLINATION":55.9185,"RA_OF_ASC_NODE":103.8977,"ARG_OF_PERICENTER":56.5628,"MEAN_ANOMALY":304.4179,"EPHEMERIS_TYPE":0,"CLASSIFICATION_TYPE":"U","NORAD_CAT_ID":24876,"ELEMENT_SET_NO":999,"REV_AT_EPOCH":20922,"BSTAR":0,"MEAN_MOTION_DOT":-1.4e-7,"MEAN_MOTION_DDOT":0},{"OBJECT_NAME":"GPS BIIR-5  (PRN 22)","OBJECT_ID":"2000-040A","EPOCH":"2026-02-01T22:03:29.223072","MEAN_MOTION":2.00568541,"ECCENTRICITY":0.01236204,"INCLINATION":54.8815,"RA_OF_ASC_NODE":220.5329,"ARG_OF_PERICENTER":302.417,"MEAN_ANOMALY":230.2156,"EPHEMERIS_TYPE":0,"CLASSIFICATION_TYPE":"U","NORAD_CAT_ID":26407,"ELEMENT_SET_NO":999,"REV_AT_EPOCH":18723,"BSTAR":0,"MEAN_MOTION_DOT":4.2e-7,"MEAN_MOTION_DDOT":0},{"OBJECT_NAME":"GPS BIIR-8  (PRN 16)","OBJECT_ID":"2003-005A","EPOCH":"2026-02-01T12:09:29.741472","MEAN_MOTION":2.0056797,"ECCENTRICITY":0.01486701,"INCLINATION":54.9135,"RA_OF_ASC_NODE":220.3578,"ARG_OF_PERICENTER":52.4469,"MEAN_ANOMALY":318.4284,"EPHEMERIS_TYPE":0,"CLASSIFICATION_TYPE":"U","NORAD_CAT_ID":27663,"ELEMENT_SET_NO":999,"REV_AT_EPOCH":16859,"BSTAR":0,"MEAN_MOTION_DOT":4.7e-7,"MEAN_MOTION_DDOT":0},{"OBJECT_NAME":"GPS BIIR-11 (PRN 19)","OBJECT_ID":"2004-009A","EPOCH":"2026-02-01T12:28:14.458656","MEAN_MOTION":2.00558932,"ECCENTRICITY":0.01097264,"INCLINATION":54.9405,"RA_OF_ASC_NODE":281.169,"ARG_OF_PERICENTER":168.2827,"MEAN_ANOMALY":8.8894,"EPHEMERIS_TYPE":0,"CLASSIFICATION_TYPE":"U","NORAD_CAT_ID":28190,"ELEMENT_SET_NO":999,"REV_AT_EPOCH":16022,"BSTAR":0,"MEAN_MOTION_DOT":-7.0e-8,"MEAN_MOTION_DDOT":0},{"OBJECT_NAME":"GPS BIIR-13 (PRN 02)","OBJECT_ID":"2004-045A","EPOCH":"2026-02-01T03:36:06.922368","MEAN_MOTION":2.00571771,"ECCENTRICITY":0.01711491,"INCLINATION":55.2132,"RA_OF_ASC_NODE":330.3779,"ARG_OF_PERICENTER":311.5015,"MEAN_ANOMALY":20.7786,"EPHEMERIS_TYPE":0,"CLASSIFICATION_TYPE":"U","NORAD_CAT_ID":28474,"ELEMENT_SET_NO":999,"REV_AT_EPOCH":15569,"BSTAR":0,"MEAN_MOTION_DOT":-9.6e-7,"MEAN_MOTION_DDOT":0},{"OBJECT_NAME":"GPS BIIRM-1 (PRN 17)","OBJECT_ID":"2005-038A","EPOCH":"2026-02-01T11:49:10.750656","MEAN_MOTION":2.0057501,"ECCENTRICITY":0.01298171,"INCLINATION":54.9874,"RA_OF_ASC_NODE":278.6541,"ARG_OF_PERICENTER":294.792,"MEAN_ANOMALY":244.8679,"EPHEMERIS_TYPE":0,"CLASSIFICATION_TYPE":"U","NORAD_CAT_ID":28874,"ELEMENT_SET_NO":999,"REV_AT_EPOCH":14911,"BSTAR":0,"MEAN_MOTION_DOT":-2.0e-8,"MEAN_MOTION_DDOT":0},{"OBJECT_NAME":"GPS BIIRM-2 (PRN 31)","OBJECT_ID":"2006-042A","EPOCH":"2026-02-01T09:36:34.544448","MEAN_MOTION":2.00552212,"ECCENTRICITY":0.01067475,"INCLINATION":54.6978,"RA_OF_ASC_NODE":156.7308,"ARG_OF_PERICENTER":52.8541,"MEAN_ANOMALY":319.2677,"EPHEMERIS_TYPE":0,"CLASSIFICATION_TYPE":"U","NORAD_CAT_ID":29486,"ELEMENT_SET_NO":999,"REV_AT_EPOCH":14167,"BSTAR":0,"MEAN_MOTION_DOT":-1.3e-7,"MEAN_MOTION_DDOT":0},{"OBJECT_NAME":"GPS BIIRM-3 (PRN 12)","OBJECT_ID":"2006-052A","EPOCH":"2026-02-01T19:10:01.371936","MEAN_MOTION":2.0054962,"ECCENTRICITY":0.00882561,"INCLINATION":54.9618,"RA_OF_ASC_NODE":219.3709,"ARG_OF_PERICENTER":88.8104,"MEAN_ANOMALY":272.206,"EPHEMERIS_TYPE":0,"CLASSIFICATION_TYPE":"U","NORAD_CAT_ID":29601,"ELEMENT_SET_NO":999,"REV_AT_EPOCH":14069,"BSTAR":0,"MEAN_MOTION_DOT":4.3e-7,"MEAN_MOTION_DDOT":0},{"OBJECT_NAME":"GPS BIIRM-4 (PRN 15)","OBJECT_ID":"2007-047A","EPOCH":"2026-02-01T02:38:18.141216","MEAN_MOTION":2.00562219,"ECCENTRICITY":0.01635874,"INCLINATION":53.9909,"RA_OF_ASC_NODE":85.6763,"ARG_OF_PERICENTER":85.7279,"MEAN_ANOMALY":276.211,"EPHEMERIS_TYPE":0,"CLASSIFICATION_TYPE":"U","NORAD_CAT_ID":32260,"ELEMENT_SET_NO":999,"REV_AT_EPOCH":13408,"BSTAR":0,"MEAN_MOTION_DOT":-1.7e-7,"MEAN_MOTION_DDOT":0},{"OBJECT_NAME":"GPS BIIRM-5 (PRN 29)","OBJECT_ID":"2007-062A","EPOCH":"2026-02-01T04:06:19.023264","MEAN_MOTION":2.00551498,"ECCENTRICITY":0.00320747,"INCLINATION":55.139,"RA_OF_ASC_NODE":279.6204,"ARG_OF_PERICENTER":160.9315,"MEAN_ANOMALY":12.388,"EPHEMERIS_TYPE":0,"CLASSIFICATION_TYPE":"U","NORAD_CAT_ID":32384,"ELEMENT_SET_NO":999,"REV_AT_EPOCH":13278,"BSTAR":0,"MEAN_MOTION_DOT":-1.0e-8,"MEAN_MOTION_DDOT":0},{"OBJECT_NAME":"GPS BIIRM-6 (PRN 07)","OBJECT_ID":"2008-012A","EPOCH":"2026-02-01T12:40:00.629184","MEAN_MOTION":2.00567799,"ECCENTRICITY":0.02051147,"INCLINATION":54.4816,"RA_OF_ASC_NODE":155.3453,"ARG_OF_PERICENTER":245.6576,"MEAN_ANOMALY":112.1526,"EPHEMERIS_TYPE":0,"CLASSIFICATION_TYPE":"U","NORAD_CAT_ID":32711,"ELEMENT_SET_NO":999,"REV_AT_EPOCH":13103,"BSTAR":0,"MEAN_MOTION_DOT":-1.3e-7,"MEAN_MOTION_DDOT":0},{"OBJECT_NAME":"GPS BIIRM-8 (PRN 05)","OBJECT_ID":"2009-043A","EPOCH":"2026-02-01T12:10:38.646336","MEAN_MOTION":2.00562336,"ECCENTRICITY":0.00513128,"INCLINATION":56.1271,"RA_OF_ASC_NODE":32.7823,"ARG_OF_PERICENTER":80.9692,"MEAN_ANOMALY":281.2199,"EPHEMERIS_TYPE":0,"CLASSIFICATION_TYPE":"U","NORAD_CAT_ID":35752,"ELEMENT_SET_NO":999,"REV_AT_EPOCH":12064,"BSTAR":0,"MEAN_MOTION_DOT":-6.2e-7,"MEAN_MOTION_DDOT":0},{"OBJECT_NAME":"GPS BIIF-1  (PRN 25)","OBJECT_ID":"2010-022A","EPOCH":"2026-02-01T08:10:41.695104","MEAN_MOTION":2.00555685,"ECCENTRICITY":0.01273538,"INCLINATION":54.2938,"RA_OF_ASC_NODE":214.0326,"ARG_OF_PERICENTER":65.6355,"MEAN_ANOMALY":293.3026,"EPHEMERIS_TYPE":0,"CLASSIFICATION_TYPE":"U","NORAD_CAT_ID":36585,"ELEMENT_SET_NO":999,"REV_AT_EPOCH":11486,"BSTAR":0,"MEAN_MOTION_DOT":4.4e-7,"MEAN_MOTION_DDOT":0},{"OBJECT_NAME":"GPS BIIF-3  (PRN 24)","OBJECT_ID":"2012-053A","EPOCH":"2026-02-01T04:57:54.770688","MEAN_MOTION":2.00565376,"ECCENTRICITY":0.01766196,"INCLINATION":53.5637,"RA_OF_ASC_NODE":149.1718,"ARG_OF_PERICENTER":64.5588,"MEAN_ANOMALY":297.2231,"EPHEMERIS_TYPE":0,"CLASSIFICATION_TYPE":"U","NORAD_CAT_ID":38833,"ELEMENT_SET_NO":999,"REV_AT_EPOCH":9671,"BSTAR":0,"MEAN_MOTION_DOT":-1.8e-7,"MEAN_MOTION_DDOT":0},{"OBJECT_NAME":"GPS BIIF-4  (PRN 27)","OBJECT_ID":"2013-023A","EPOCH":"2026-02-01T01:42:57.650112","MEAN_MOTION":2.00564316,"ECCENTRICITY":0.01405985,"INCLINATION":54.6097,"RA_OF_ASC_NODE":274.5186,"ARG_OF_PERICENTER":49.3774,"MEAN_ANOMALY":311.9129,"EPHEMERIS_TYPE":0,"CLASSIFICATION_TYPE":"U","NORAD_CAT_ID":39166,"ELEMENT_SET_NO":999,"REV_AT_EPOCH":9315,"BSTAR":0,"MEAN_MOTION_DOT":9.0e-8,"MEAN_MOTION_DDOT":0},{"OBJECT_NAME":"GPS BIIF-5  (PRN 30)","OBJECT_ID":"2014-008A","EPOCH":"2026-02-01T13:36:09.216576","MEAN_MOTION":2.00551111,"ECCENTRICITY":0.00811292,"INCLINATION":53.6365,"RA_OF_ASC_NODE":154.8527,"ARG_OF_PERICENTER":227.194,"MEAN_ANOMALY":132.0847,"EPHEMERIS_TYPE":0,"CLASSIFICATION_TYPE":"U","NORAD_CAT_ID":39533,"ELEMENT_SET_NO":999,"REV_AT_EPOCH":8696,"BSTAR":0,"MEAN_MOTION_DOT":-1.4e-7,"MEAN_MOTION_DDOT":0},{"OBJECT_NAME":"GPS BIIF-6  (PRN 06)","OBJECT_ID":"2014-026A","EPOCH":"2026-02-01T08:21:51.918912","MEAN_MOTION":2.00570784,"ECCENTRICITY":0.00400356,"INCLINATION":56.5617,"RA_OF_ASC_NODE":336.8083,"ARG_OF_PERICENTER":322.5575,"MEAN_ANOMALY":37.163,"EPHEMERIS_TYPE":0,"CLASSIFICATION_TYPE":"U","NORAD_CAT_ID":39741,"ELEMENT_SET_NO":999,"REV_AT_EPOCH":8581,"BSTAR":0,"MEAN_MOTION_DOT":-9.9e-7,"MEAN_MOTION_DDOT":0}]
